H1 CPF  1  DGF 2022 05 30 09  6501 larets     NONE      
H2   304206 5557    27944 2022 05 22 00 00 00 2022 05 29 00 00 00    30 1 1  0 0 0
H5  0.0650
H9
10 0 59721  46800.000000  0        742120.869       1258092.302       6900369.888
10 0 59721  46830.000000  0        959716.735       1313919.364       6863403.158
10 0 59721  46860.000000  0       1176580.411       1367465.815       6819437.266
10 0 59721  46890.000000  0       1392482.373       1418681.264       6768517.591
10 0 59721  46920.000000  0       1607193.884       1467518.680       6710696.547
10 0 59721  46950.000000  0       1820487.230       1513934.437       6646033.532
10 0 59721  46980.000000  0       2032135.965       1557888.349       6574594.868
10 0 59721  47010.000000  0       2241915.149       1599343.707       6496453.737
10 0 59721  47040.000000  0       2449601.587       1638267.307       6411690.109
10 0 59721  47070.000000  0       2654974.075       1674629.473       6320390.668
10 0 59721  47100.000000  0       2857813.630       1708404.080       6222648.716
10 0 59721  47130.000000  0       3057903.736       1739568.569       6118564.086
10 0 59721  47160.000000  0       3255030.564       1768103.955       6008243.039
10 0 59721  47190.000000  0       3448983.207       1793994.837       5891798.155
10 0 59721  47220.000000  0       3639553.908       1817229.397       5769348.229
10 0 59721  47250.000000  0       3826538.275       1837799.399       5641018.145
10 0 59721  47280.000000  0       4009735.513       1855700.185       5506938.763
10 0 59721  47310.000000  0       4188948.631       1870930.663       5367246.784
10 0 59721  47340.000000  0       4363984.667       1883493.291       5222084.618
10 0 59721  47370.000000  0       4534654.893       1893394.061       5071600.247
10 0 59721  47400.000000  0       4700775.031       1900642.472       4915947.076
10 0 59721  47430.000000  0       4862165.456       1905251.507       4755283.783
10 0 59721  47460.000000  0       5018651.400       1907237.595       4589774.157
10 0 59721  47490.000000  0       5170063.150       1906620.573       4419586.933
10 0 59721  47520.000000  0       5316236.242       1903423.646       4244895.615
10 0 59721  47550.000000  0       5457011.637       1897673.339       4065878.291
10 0 59721  47580.000000  0       5592235.894       1889399.445       3882717.453
10 0 59721  47610.000000  0       5721761.334       1878634.976       3695599.814
10 0 59721  47640.000000  0       5845446.215       1865416.103       3504716.128
10 0 59721  47670.000000  0       5963154.886       1849782.091       3310260.990
10 0 59721  47700.000000  0       6074757.951       1831775.234       3112432.645
10 0 59721  47730.000000  0       6180132.413       1811440.786       2911432.779
10 0 59721  47760.000000  0       6279161.819       1788826.886       2707466.316
10 0 59721  47790.000000  0       6371736.388       1763984.480       2500741.200
10 0 59721  47820.000000  0       6457753.145       1736967.243       2291468.188
10 0 59721  47850.000000  0       6537116.035       1707831.489       2079860.623
10 0 59721  47880.000000  0       6609736.034       1676636.090       1866134.214
10 0 59721  47910.000000  0       6675531.245       1643442.377       1650506.812
10 0 59721  47940.000000  0       6734426.997       1608314.052       1433198.188
10 0 59721  47970.000000  0       6786355.929       1571317.088       1214429.805
10 0 59721  48000.000000  0       6831258.070       1532519.632        994424.589
10 0 59721  48030.000000  0       6869080.910       1491991.902        773406.699
10 0 59721  48060.000000  0       6899779.467       1449806.082        551601.294
10 0 59721  48090.000000  0       6923316.335       1406036.219        329234.292
10 0 59721  48120.000000  0       6939661.732       1360758.109        106532.135
10 0 59721  48150.000000  0       6948793.530       1314049.186       -116278.444
10 0 59721  48180.000000  0       6950697.281       1265988.413       -338970.658
10 0 59721  48210.000000  0       6945366.231       1216656.159       -561317.902
10 0 59721  48240.000000  0       6932801.332       1166134.089       -783093.984
10 0 59721  48270.000000  0       6913011.240       1114505.042      -1004073.356
10 0 59721  48300.000000  0       6886012.305       1061852.912      -1224031.350
10 0 59721  48330.000000  0       6851828.560       1008262.528      -1442744.404
10 0 59721  48360.000000  0       6810491.694        953819.530      -1659990.298
10 0 59721  48390.000000  0       6762041.014        898610.252      -1875548.380
10 0 59721  48420.000000  0       6706523.409        842721.596      -2089199.795
10 0 59721  48450.000000  0       6643993.284        786240.913      -2300727.709
10 0 59721  48480.000000  0       6574512.512        729255.878      -2509917.526
10 0 59721  48510.000000  0       6498150.358        671854.373      -2716557.110
10 0 59721  48540.000000  0       6414983.406        614124.358      -2920436.995
10 0 59721  48570.000000  0       6325095.476        556153.756      -3121350.602
10 0 59721  48600.000000  0       6228577.529        498030.331      -3319094.447
10 0 59721  48630.000000  0       6125527.568        439841.564      -3513468.345
10 0 59721  48660.000000  0       6016050.525        381674.534      -3704275.612
10 0 59721  48690.000000  0       5900258.151        323615.805      -3891323.259
10 0 59721  48720.000000  0       5778268.884        265751.304      -4074422.184
10 0 59721  48750.000000  0       5650207.729        208166.205      -4253387.358
10 0 59721  48780.000000  0       5516206.109        150944.819      -4428038.006
10 0 59721  48810.000000  0       5376401.732         94170.477      -4598197.780
10 0 59721  48840.000000  0       5230938.439         37925.425      -4763694.933
10 0 59721  48870.000000  0       5079966.052        -17709.287      -4924362.481
10 0 59721  48900.000000  0       4923640.211        -72653.912      -5080038.370
10 0 59721  48930.000000  0       4762122.212       -126830.107      -5230565.629
10 0 59721  48960.000000  0       4595578.834       -180161.036      -5375792.521
10 0 59721  48990.000000  0       4424182.162       -232571.468      -5515572.691
10 0 59721  49020.000000  0       4248109.408       -283987.879      -5649765.305
10 0 59721  49050.000000  0       4067542.722       -334338.540      -5778235.182
10 0 59721  49080.000000  0       3882669.004       -383553.613      -5900852.932
10 0 59721  49110.000000  0       3693679.699       -431565.242      -6017495.071
10 0 59721  49140.000000  0       3500770.605       -478307.633      -6128044.141
10 0 59721  49170.000000  0       3304141.657       -523717.142      -6232388.813
10 0 59721  49200.000000  0       3103996.730       -567732.349      -6330423.997
10 0 59721  49230.000000  0       2900543.422       -610294.137      -6422050.933
10 0 59721  49260.000000  0       2693992.842       -651345.763      -6507177.284
10 0 59721  49290.000000  0       2484559.396       -690832.929      -6585717.223
10 0 59721  49320.000000  0       2272460.568       -728703.849      -6657591.513
10 0 59721  49350.000000  0       2057916.693       -764909.312      -6722727.580
10 0 59721  49380.000000  0       1841150.741       -799402.745      -6781059.588
10 0 59721  49410.000000  0       1622388.078       -832140.266      -6832528.495
10 0 59721  49440.000000  0       1401856.243       -863080.739      -6877082.112
10 0 59721  49470.000000  0       1179784.710       -892185.823      -6914675.155
10 0 59721  49500.000000  0        956404.658       -919420.013      -6945269.285
10 0 59721  49530.000000  0        731948.726       -944750.681      -6968833.145
10 0 59721  49560.000000  0        506650.788       -968148.117      -6985342.386
10 0 59721  49590.000000  0        280745.708       -989585.560      -6994779.694
10 0 59721  49620.000000  0         54469.107      -1009039.229      -6997134.809
10 0 59721  49650.000000  0       -171942.876      -1026488.350      -6992404.538
10 0 59721  49680.000000  0       -398253.828      -1041915.181      -6980592.764
10 0 59721  49710.000000  0       -624227.302      -1055305.027      -6961710.449
10 0 59721  49740.000000  0       -849627.064      -1066646.259      -6935775.621
10 0 59721  49770.000000  0      -1074217.331      -1075930.320      -6902813.366
10 0 59721  49800.000000  0      -1297763.016      -1083151.735      -6862855.803
10 0 59721  49830.000000  0      -1520029.968      -1088308.110      -6815942.067
10 0 59721  49860.000000  0      -1740785.216      -1091400.138      -6762118.268
10 0 59721  49890.000000  0      -1959797.210      -1092431.584      -6701437.452
10 0 59721  49920.000000  0      -2176836.055      -1091409.285      -6633959.554
10 0 59721  49950.000000  0      -2391673.750      -1088343.131      -6559751.350
10 0 59721  49980.000000  0      -2604084.419      -1083246.052      -6478886.400
10 0 59721  50010.000000  0      -2813844.551      -1076133.994      -6391444.989
10 0 59721  50040.000000  0      -3020733.235      -1067025.898      -6297514.058
10 0 59721  50070.000000  0      -3224532.391      -1055943.674      -6197187.136
10 0 59721  50100.000000  0      -3425027.012      -1042912.163      -6090564.249
10 0 59721  50130.000000  0      -3622005.388      -1027959.105      -5977751.838
10 0 59721  50160.000000  0      -3815259.340      -1011115.098      -5858862.658
10 0 59721  50190.000000  0      -4004584.437       -992413.552      -5734015.675
10 0 59721  50220.000000  0      -4189780.221       -971890.642      -5603335.958
10 0 59721  50250.000000  0      -4370650.426       -949585.257      -5466954.565
10 0 59721  50280.000000  0      -4547003.188       -925538.944      -5325008.420
10 0 59721  50310.000000  0      -4718651.258       -899795.851      -5177640.188
10 0 59721  50340.000000  0      -4885412.211       -872402.663      -5024998.141
10 0 59721  50370.000000  0      -5047108.645       -843408.539      -4867236.018
99
